[{"OBJECT_NAME":"ONEWEB-0224","OBJECT_ID":"2021-045AD","EPOCH":"2026-05-09T03:34:27.075072","MEAN_MOTION":13.15549041,"ECCENTRICITY":9.33e-05,"INCLINATION":87.897,"RA_OF_ASC_NODE":267.0097,"ARG_OF_PERICENTER":98.345,"MEAN_ANOMALY":261.7786,"EPHEMERIS_TYPE":0,"CLASSIFICATION_TYPE":"U","NORAD_CAT_ID":48794,"ELEMENT_SET_NO":999,"REV_AT_EPOCH":23914,"BSTAR":0.0005119500000000001,"MEAN_MOTION_DOT":2.06e-06,"MEAN_MOTION_DDOT":0.0},{"OBJECT_NAME":"ONEWEB-0233","OBJECT_ID":"2021-045AE","EPOCH":"2026-05-09T01:51:33.698304","MEAN_MOTION":13.15550209,"ECCENTRICITY":0.0001675,"INCLINATION":87.8969,"RA_OF_ASC_NODE":267.0321,"ARG_OF_PERICENTER":89.7664,"MEAN_ANOMALY":270.3658,"EPHEMERIS_TYPE":0,"CLASSIFICATION_TYPE":"U","NORAD_CAT_ID":48795,"ELEMENT_SET_NO":999,"REV_AT_EPOCH":23915,"BSTAR":0.00025712,"MEAN_MOTION_DOT":1.1e-06,"MEAN_MOTION_DDOT":0.0},{"OBJECT_NAME":"ONEWEB-0190","OBJECT_ID":"2021-045AF","EPOCH":"2026-05-09T03:23:02.548608","MEAN_MOTION":13.15548823,"ECCENTRICITY":0.0001881,"INCLINATION":87.8971,"RA_OF_ASC_NODE":266.9808,"ARG_OF_PERICENTER":76.3587,"MEAN_ANOMALY":283.7753,"EPHEMERIS_TYPE":0,"CLASSIFICATION_TYPE":"U","NORAD_CAT_ID":48796,"ELEMENT_SET_NO":999,"REV_AT_EPOCH":23923,"BSTAR":0.0005531500000000001,"MEAN_MOTION_DOT":2.21e-06,"MEAN_MOTION_DDOT":0.0},{"OBJECT_NAME":"ONEWEB-0236","OBJECT_ID":"2021-045AG","EPOCH":"2026-05-09T01:58:37.488576","MEAN_MOTION":13.15548803,"ECCENTRICITY":0.0001778,"INCLINATION":87.8968,"RA_OF_ASC_NODE":267.0032,"ARG_OF_PERICENTER":103.061,"MEAN_ANOMALY":257.0719,"EPHEMERIS_TYPE":0,"CLASSIFICATION_TYPE":"U","NORAD_CAT_ID":48797,"ELEMENT_SET_NO":999,"REV_AT_EPOCH":23911,"BSTAR":5.0385000000000006e-05,"MEAN_MOTION_DOT":3.2e-07,"MEAN_MOTION_DDOT":0.0},{"OBJECT_NAME":"ONEWEB-0248","OBJECT_ID":"2021-045AH","EPOCH":"2026-05-09T02:16:50.775168","MEAN_MOTION":13.15551496,"ECCENTRICITY":0.000154,"INCLINATION":87.898,"RA_OF_ASC_NODE":266.98,"ARG_OF_PERICENTER":84.929,"MEAN_ANOMALY":275.2016,"EPHEMERIS_TYPE":0,"CLASSIFICATION_TYPE":"U","NORAD_CAT_ID":48798,"ELEMENT_SET_NO":999,"REV_AT_EPOCH":23927,"BSTAR":-9.3504e-05,"MEAN_MOTION_DOT":-2.2e-07,"MEAN_MOTION_DDOT":0.0},{"OBJECT_NAME":"ONEWEB-0225","OBJECT_ID":"2021-045AJ","EPOCH":"2026-05-09T02:48:47.274048","MEAN_MOTION":13.1554887,"ECCENTRICITY":0.0001847,"INCLINATION":87.8968,"RA_OF_ASC_NODE":266.9862,"ARG_OF_PERICENTER":80.8046,"MEAN_ANOMALY":279.3293,"EPHEMERIS_TYPE":0,"CLASSIFICATION_TYPE":"U","NORAD_CAT_ID":48799,"ELEMENT_SET_NO":999,"REV_AT_EPOCH":23928,"BSTAR":-0.00015789,"MEAN_MOTION_DOT":-4.7e-07,"MEAN_MOTION_DDOT":0.0},{"OBJECT_NAME":"ONEWEB-0215","OBJECT_ID":"2021-045AK","EPOCH":"2026-05-09T02:05:28.167648","MEAN_MOTION":13.15548647,"ECCENTRICITY":0.0001726,"INCLINATION":87.898,"RA_OF_ASC_NODE":266.9716,"ARG_OF_PERICENTER":75.5718,"MEAN_ANOMALY":284.5604,"EPHEMERIS_TYPE":0,"CLASSIFICATION_TYPE":"U","NORAD_CAT_ID":48800,"ELEMENT_SET_NO":999,"REV_AT_EPOCH":23915,"BSTAR":-0.00014494,"MEAN_MOTION_DOT":-4.2e-07,"MEAN_MOTION_DDOT":0.0},{"OBJECT_NAME":"ONEWEB-0216","OBJECT_ID":"2021-045AL","EPOCH":"2026-05-09T02:19:09.354720","MEAN_MOTION":13.15548979,"ECCENTRICITY":0.0001894,"INCLINATION":87.8977,"RA_OF_ASC_NODE":266.9857,"ARG_OF_PERICENTER":98.8793,"MEAN_ANOMALY":261.2552,"EPHEMERIS_TYPE":0,"CLASSIFICATION_TYPE":"U","NORAD_CAT_ID":48801,"ELEMENT_SET_NO":999,"REV_AT_EPOCH":23916,"BSTAR":-0.00018794,"MEAN_MOTION_DOT":-5.8e-07,"MEAN_MOTION_DDOT":0.0},{"OBJECT_NAME":"ONEWEB-0239","OBJECT_ID":"2021-045AM","EPOCH":"2026-05-09T02:25:58.690272","MEAN_MOTION":13.15549822,"ECCENTRICITY":0.0001454,"INCLINATION":87.8967,"RA_OF_ASC_NODE":266.9946,"ARG_OF_PERICENTER":72.8193,"MEAN_ANOMALY":287.3096,"EPHEMERIS_TYPE":0,"CLASSIFICATION_TYPE":"U","NORAD_CAT_ID":48802,"ELEMENT_SET_NO":999,"REV_AT_EPOCH":23920,"BSTAR":-0.00018092,"MEAN_MOTION_DOT":-5.5e-07,"MEAN_MOTION_DDOT":0.0},{"OBJECT_NAME":"ONEWEB-0249","OBJECT_ID":"2021-060A","EPOCH":"2026-05-09T05:14:32.809056","MEAN_MOTION":13.16595995,"ECCENTRICITY":0.0001804,"INCLINATION":87.9101,"RA_OF_ASC_NODE":236.5157,"ARG_OF_PERICENTER":100.8383,"MEAN_ANOMALY":259.2951,"EPHEMERIS_TYPE":0,"CLASSIFICATION_TYPE":"U","NORAD_CAT_ID":48967,"ELEMENT_SET_NO":999,"REV_AT_EPOCH":23448,"BSTAR":0.00031392,"MEAN_MOTION_DOT":1.33e-06,"MEAN_MOTION_DDOT":0.0},{"OBJECT_NAME":"ONEWEB-0250","OBJECT_ID":"2021-060B","EPOCH":"2026-05-09T05:09:52.333056","MEAN_MOTION":13.2583092,"ECCENTRICITY":0.0001144,"INCLINATION":87.9099,"RA_OF_ASC_NODE":234.3992,"ARG_OF_PERICENTER":122.8512,"MEAN_ANOMALY":237.2734,"EPHEMERIS_TYPE":0,"CLASSIFICATION_TYPE":"U","NORAD_CAT_ID":48968,"ELEMENT_SET_NO":999,"REV_AT_EPOCH":23505,"BSTAR":5.350700000000001e-05,"MEAN_MOTION_DOT":3.7e-07,"MEAN_MOTION_DDOT":0.0},{"OBJECT_NAME":"ONEWEB-0252","OBJECT_ID":"2021-060D","EPOCH":"2026-05-09T00:30:43.409664","MEAN_MOTION":13.1659501,"ECCENTRICITY":0.0002177,"INCLINATION":87.9099,"RA_OF_ASC_NODE":236.5467,"ARG_OF_PERICENTER":98.819,"MEAN_ANOMALY":261.3187,"EPHEMERIS_TYPE":0,"CLASSIFICATION_TYPE":"U","NORAD_CAT_ID":48970,"ELEMENT_SET_NO":999,"REV_AT_EPOCH":23450,"BSTAR":-9.316100000000001e-05,"MEAN_MOTION_DOT":-2.3e-07,"MEAN_MOTION_DDOT":0.0},{"OBJECT_NAME":"ONEWEB-0253","OBJECT_ID":"2021-060E","EPOCH":"2026-05-09T00:14:44.640096","MEAN_MOTION":13.1659571,"ECCENTRICITY":0.0001865,"INCLINATION":87.9097,"RA_OF_ASC_NODE":236.5545,"ARG_OF_PERICENTER":99.5739,"MEAN_ANOMALY":260.5603,"EPHEMERIS_TYPE":0,"CLASSIFICATION_TYPE":"U","NORAD_CAT_ID":48971,"ELEMENT_SET_NO":999,"REV_AT_EPOCH":23443,"BSTAR":-0.00017606,"MEAN_MOTION_DOT":-5.4e-07,"MEAN_MOTION_DDOT":0.0},{"OBJECT_NAME":"ONEWEB-0254","OBJECT_ID":"2021-060F","EPOCH":"2026-05-09T00:28:26.603040","MEAN_MOTION":13.16595431,"ECCENTRICITY":0.0001701,"INCLINATION":87.9098,"RA_OF_ASC_NODE":236.5492,"ARG_OF_PERICENTER":94.1451,"MEAN_ANOMALY":265.9874,"EPHEMERIS_TYPE":0,"CLASSIFICATION_TYPE":"U","NORAD_CAT_ID":48972,"ELEMENT_SET_NO":999,"REV_AT_EPOCH":23443,"BSTAR":-0.00010829999999999999,"MEAN_MOTION_DOT":-2.9e-07,"MEAN_MOTION_DDOT":0.0},{"OBJECT_NAME":"ONEWEB-0255","OBJECT_ID":"2021-060G","EPOCH":"2026-05-09T05:01:59.655072","MEAN_MOTION":13.16596512,"ECCENTRICITY":0.0001817,"INCLINATION":87.9099,"RA_OF_ASC_NODE":236.5192,"ARG_OF_PERICENTER":96.4659,"MEAN_ANOMALY":263.6679,"EPHEMERIS_TYPE":0,"CLASSIFICATION_TYPE":"U","NORAD_CAT_ID":48973,"ELEMENT_SET_NO":999,"REV_AT_EPOCH":23453,"BSTAR":0.00024372,"MEAN_MOTION_DOT":1.06e-06,"MEAN_MOTION_DDOT":0.0},{"OBJECT_NAME":"ONEWEB-0256","OBJECT_ID":"2021-060H","EPOCH":"2026-05-09T00:11:20.846688","MEAN_MOTION":13.16595687,"ECCENTRICITY":0.000201,"INCLINATION":87.9092,"RA_OF_ASC_NODE":236.5654,"ARG_OF_PERICENTER":102.9797,"MEAN_ANOMALY":257.1558,"EPHEMERIS_TYPE":0,"CLASSIFICATION_TYPE":"U","NORAD_CAT_ID":48974,"ELEMENT_SET_NO":999,"REV_AT_EPOCH":23447,"BSTAR":0.00033057999999999997,"MEAN_MOTION_DOT":1.39e-06,"MEAN_MOTION_DDOT":0.0},{"OBJECT_NAME":"ONEWEB-0257","OBJECT_ID":"2021-060J","EPOCH":"2026-05-09T00:58:04.415232","MEAN_MOTION":13.16595765,"ECCENTRICITY":0.000194,"INCLINATION":87.9097,"RA_OF_ASC_NODE":236.5441,"ARG_OF_PERICENTER":97.0491,"MEAN_ANOMALY":263.0861,"EPHEMERIS_TYPE":0,"CLASSIFICATION_TYPE":"U","NORAD_CAT_ID":48975,"ELEMENT_SET_NO":999,"REV_AT_EPOCH":23443,"BSTAR":0.00034009000000000003,"MEAN_MOTION_DOT":1.43e-06,"MEAN_MOTION_DDOT":0.0},{"OBJECT_NAME":"ONEWEB-0258","OBJECT_ID":"2021-060K","EPOCH":"2026-05-09T01:00:20.528064","MEAN_MOTION":13.16595167,"ECCENTRICITY":0.0001856,"INCLINATION":87.9098,"RA_OF_ASC_NODE":236.5551,"ARG_OF_PERICENTER":101.4173,"MEAN_ANOMALY":258.7166,"EPHEMERIS_TYPE":0,"CLASSIFICATION_TYPE":"U","NORAD_CAT_ID":48976,"ELEMENT_SET_NO":999,"REV_AT_EPOCH":23444,"BSTAR":6.7594e-05,"MEAN_MOTION_DOT":3.9e-07,"MEAN_MOTION_DDOT":0.0},{"OBJECT_NAME":"ONEWEB-0259","OBJECT_ID":"2021-060L","EPOCH":"2026-05-09T00:51:12.377952","MEAN_MOTION":13.1659273,"ECCENTRICITY":0.0001764,"INCLINATION":87.9095,"RA_OF_ASC_NODE":236.5561,"ARG_OF_PERICENTER":100.5506,"MEAN_ANOMALY":259.5824,"EPHEMERIS_TYPE":0,"CLASSIFICATION_TYPE":"U","NORAD_CAT_ID":48977,"ELEMENT_SET_NO":999,"REV_AT_EPOCH":23447,"BSTAR":0.00010007000000000001,"MEAN_MOTION_DOT":5.1e-07,"MEAN_MOTION_DDOT":0.0},{"OBJECT_NAME":"ONEWEB-0260","OBJECT_ID":"2021-060M","EPOCH":"2026-05-09T00:38:41.344224","MEAN_MOTION":13.16594955,"ECCENTRICITY":0.0002376,"INCLINATION":87.9089,"RA_OF_ASC_NODE":236.5617,"ARG_OF_PERICENTER":100.9177,"MEAN_ANOMALY":259.2221,"EPHEMERIS_TYPE":0,"CLASSIFICATION_TYPE":"U","NORAD_CAT_ID":48978,"ELEMENT_SET_NO":999,"REV_AT_EPOCH":23445,"BSTAR":-8.2453e-05,"MEAN_MOTION_DOT":-1.9e-07,"MEAN_MOTION_DDOT":0.0},{"OBJECT_NAME":"ONEWEB-0261","OBJECT_ID":"2021-060N","EPOCH":"2026-05-09T05:23:40.514208","MEAN_MOTION":13.16593845,"ECCENTRICITY":0.0001967,"INCLINATION":87.9097,"RA_OF_ASC_NODE":236.5213,"ARG_OF_PERICENTER":91.1637,"MEAN_ANOMALY":268.9719,"EPHEMERIS_TYPE":0,"CLASSIFICATION_TYPE":"U","NORAD_CAT_ID":48979,"ELEMENT_SET_NO":999,"REV_AT_EPOCH":23453,"BSTAR":0.00022379,"MEAN_MOTION_DOT":9.8e-07,"MEAN_MOTION_DDOT":0.0},{"OBJECT_NAME":"ONEWEB-0262","OBJECT_ID":"2021-060P","EPOCH":"2026-05-09T04:55:11.442720","MEAN_MOTION":13.16594894,"ECCENTRICITY":0.0001624,"INCLINATION":87.9099,"RA_OF_ASC_NODE":236.5098,"ARG_OF_PERICENTER":100.3618,"MEAN_ANOMALY":259.7696,"EPHEMERIS_TYPE":0,"CLASSIFICATION_TYPE":"U","NORAD_CAT_ID":48980,"ELEMENT_SET_NO":999,"REV_AT_EPOCH":23449,"BSTAR":0.00030858999999999997,"MEAN_MOTION_DOT":1.31e-06,"MEAN_MOTION_DDOT":0.0},{"OBJECT_NAME":"ONEWEB-0263","OBJECT_ID":"2021-060Q","EPOCH":"2026-05-09T00:12:26.883936","MEAN_MOTION":13.16596594,"ECCENTRICITY":0.0001837,"INCLINATION":87.9099,"RA_OF_ASC_NODE":236.5603,"ARG_OF_PERICENTER":91.1509,"MEAN_ANOMALY":268.9833,"EPHEMERIS_TYPE":0,"CLASSIFICATION_TYPE":"U","NORAD_CAT_ID":48981,"ELEMENT_SET_NO":999,"REV_AT_EPOCH":23443,"BSTAR":-9.7417e-05,"MEAN_MOTION_DOT":-2.4e-07,"MEAN_MOTION_DDOT":0.0}]